{
  "type": "FeatureCollection",
  "name": "mcd_stations",
  "crs": { "type": "name", "properties": { "name": "urn:ogc:def:crs:OGC:1.3:CRS84" } },
  "features": [
    {
      "type": "Feature",
      "properties": { "name_ru": "Перерва", "line_name": "D2", "colour": "#EF4D89" },
      "geometry": { "type": "Point", "coordinates": [37.716244481044129, 55.66079710436717] }
    },
    {
      "type": "Feature",
      "properties": { "name_ru": "Пенягино", "line_name": "D2", "colour": "#EF4D89" },
      "geometry": { "type": "Point", "coordinates": [37.361043839176574, 55.82299529014422] }
    },
    {
      "type": "Feature",
      "properties": { "name_ru": "Тушинская", "line_name": "D2", "colour": "#EF4D89" },
      "geometry": { "type": "Point", "coordinates": [37.441566877095894, 55.826967689317506] }
    },
    {
      "type": "Feature",
      "properties": { "name_ru": "Водники", "line_name": "D1", "colour": "#FAA61A" },
      "geometry": { "type": "Point", "coordinates": [37.5125126, 55.952576799767932] }
    },
    {
      "type": "Feature",
      "properties": { "name_ru": "Покровское-Стрешнево", "line_name": "D2", "colour": "#EF4D89" },
      "geometry": { "type": "Point", "coordinates": [37.4766949, 55.81431809971086] }
    },
    {
      "type": "Feature",
      "properties": { "name_ru": "Долгопрудный", "line_name": "D1", "colour": "#FAA61A" },
      "geometry": { "type": "Point", "coordinates": [37.521051842555991, 55.938082159572211] }
    },
    {
      "type": "Feature",
      "properties": { "name_ru": "Белорусская", "line_name": "D1", "colour": "#FAA61A" },
      "geometry": { "type": "Point", "coordinates": [37.5803441, 55.777004799695781] }
    },
    {
      "type": "Feature",
      "properties": { "name_ru": "Опалиха", "line_name": "D2", "colour": "#EF4D89" },
      "geometry": { "type": "Point", "coordinates": [37.2485895, 55.822816199714296] }
    },
    {
      "type": "Feature",
      "properties": { "name_ru": "Подольск", "line_name": "D2", "colour": "#EF4D89" },
      "geometry": { "type": "Point", "coordinates": [37.56577156496531, 55.432246743676643] }
    },
    {
      "type": "Feature",
      "properties": { "name_ru": "Новохохловская", "line_name": "D2", "colour": "#EF4D89" },
      "geometry": { "type": "Point", "coordinates": [37.713035256510551, 55.724975985748507] }
    },
    {
      "type": "Feature",
      "properties": { "name_ru": "Одинцово", "line_name": "D1", "colour": "#FAA61A" },
      "geometry": { "type": "Point", "coordinates": [37.2826422, 55.67251729965448] }
    },
    {
      "type": "Feature",
      "properties": { "name_ru": "Лобня", "line_name": "D1", "colour": "#FAA61A" },
      "geometry": { "type": "Point", "coordinates": [37.484588860398553, 56.013554217268933] }
    },
    {
      "type": "Feature",
      "properties": { "name_ru": "Битца", "line_name": "D2", "colour": "#EF4D89" },
      "geometry": { "type": "Point", "coordinates": [37.611577886312034, 55.571246727668758] }
    },
    {
      "type": "Feature",
      "properties": { "name_ru": "Савёловская", "line_name": "D1", "colour": "#FAA61A" },
      "geometry": { "type": "Point", "coordinates": [37.5892899, 55.794862099702947] }
    },
    {
      "type": "Feature",
      "properties": { "name_ru": "Хлебниково", "line_name": "D1", "colour": "#FAA61A" },
      "geometry": { "type": "Point", "coordinates": [37.504576405330646, 55.970872446340586] }
    },
    {
      "type": "Feature",
      "properties": { "name_ru": "Бескудниково", "line_name": "D1", "colour": "#FAA61A" },
      "geometry": { "type": "Point", "coordinates": [37.5676919, 55.882779699738826] }
    },
    {
      "type": "Feature",
      "properties": { "name_ru": "Новодачная", "line_name": "D1", "colour": "#FAA61A" },
      "geometry": { "type": "Point", "coordinates": [37.528097953784254, 55.924170481211121] }
    },
    {
      "type": "Feature",
      "properties": { "name_ru": "Марк", "line_name": "D1", "colour": "#FAA61A" },
      "geometry": { "type": "Point", "coordinates": [37.537775959881316, 55.90528680788951] }
    },
    {
      "type": "Feature",
      "properties": { "name_ru": "Лианозово", "line_name": "D1", "colour": "#FAA61A" },
      "geometry": { "type": "Point", "coordinates": [37.553838839774848, 55.897128439308169] }
    },
    {
      "type": "Feature",
      "properties": { "name_ru": "Дегунино", "line_name": "D1", "colour": "#FAA61A" },
      "geometry": { "type": "Point", "coordinates": [37.573218899377075, 55.865798998721047] }
    },
    {
      "type": "Feature",
      "properties": { "name_ru": "Окружная", "line_name": "D1", "colour": "#FAA61A" },
      "geometry": { "type": "Point", "coordinates": [37.57444483291173, 55.847993849103439] }
    },
    {
      "type": "Feature",
      "properties": { "name_ru": "Красногорская", "line_name": "D2", "colour": "#EF4D89" },
      "geometry": { "type": "Point", "coordinates": [37.303954812482054, 55.814370794681288] }
    },
    {
      "type": "Feature",
      "properties": { "name_ru": "Павшино", "line_name": "D2", "colour": "#EF4D89" },
      "geometry": { "type": "Point", "coordinates": [37.341524625106132, 55.815238555816393] }
    },
    {
      "type": "Feature",
      "properties": { "name_ru": "Волоколамская", "line_name": "D2", "colour": "#EF4D89" },
      "geometry": { "type": "Point", "coordinates": [37.381741597277816, 55.832170254960367] }
    },
    {
      "type": "Feature",
      "properties": { "name_ru": "Шереметьевская", "line_name": "D1", "colour": "#FAA61A" },
      "geometry": { "type": "Point", "coordinates": [37.4989047, 55.983737099781109] }
    },
    {
      "type": "Feature",
      "properties": { "name_ru": "Щукинская (стр.)", "line_name": "D2", "colour": "#EF4D89" },
      "geometry": { "type": "Point", "coordinates": [37.458574735915477, 55.811167305178969] }
    },
    {
      "type": "Feature",
      "properties": { "name_ru": "Стрешнево", "line_name": "D2", "colour": "#EF4D89" },
      "geometry": { "type": "Point", "coordinates": [37.490103, 55.815256999711224] }
    },
    {
      "type": "Feature",
      "properties": { "name_ru": "Красный Балтиец", "line_name": "D2", "colour": "#EF4D89" },
      "geometry": { "type": "Point", "coordinates": [37.525675902696968, 55.815507182050723] }
    },
    {
      "type": "Feature",
      "properties": { "name_ru": "Гражданская", "line_name": "D2", "colour": "#EF4D89" },
      "geometry": { "type": "Point", "coordinates": [37.5532437, 55.805572199707285] }
    },
    {
      "type": "Feature",
      "properties": { "name_ru": "Дмитровская", "line_name": "D2", "colour": "#EF4D89" },
      "geometry": { "type": "Point", "coordinates": [37.578282570865085, 55.807962211222765] }
    },
    {
      "type": "Feature",
      "properties": { "name_ru": "Рижская", "line_name": "D2", "colour": "#EF4D89" },
      "geometry": { "type": "Point", "coordinates": [37.638724383902073, 55.794041240671142] }
    },
    {
      "type": "Feature",
      "properties": { "name_ru": "Трикотажная", "line_name": "D2", "colour": "#EF4D89" },
      "geometry": { "type": "Point", "coordinates": [37.39903982947687, 55.83315994099712] }
    },
    {
      "type": "Feature",
      "properties": { "name_ru": "Тимирязевская", "line_name": "D1", "colour": "#FAA61A" },
      "geometry": { "type": "Point", "coordinates": [37.576058275306039, 55.819211241893782] }
    },
    {
      "type": "Feature",
      "properties": { "name_ru": "Немчиновка", "line_name": "D1", "colour": "#FAA61A" },
      "geometry": { "type": "Point", "coordinates": [37.374779254181171, 55.715729122402543] }
    },
    {
      "type": "Feature",
      "properties": { "name_ru": "Аникеевка", "line_name": "D2", "colour": "#EF4D89" },
      "geometry": { "type": "Point", "coordinates": [37.219319540258624, 55.832302422075756] }
    },
    {
      "type": "Feature",
      "properties": { "name_ru": "Нахабино", "line_name": "D2", "colour": "#EF4D89" },
      "geometry": { "type": "Point", "coordinates": [37.1849167, 55.841709499722015] }
    },
    {
      "type": "Feature",
      "properties": { "name_ru": "Баковка", "line_name": "D1", "colour": "#FAA61A" },
      "geometry": { "type": "Point", "coordinates": [37.315952027740344, 55.682890731336592] }
    },
    {
      "type": "Feature",
      "properties": { "name_ru": "Сколково", "line_name": "D1", "colour": "#FAA61A" },
      "geometry": { "type": "Point", "coordinates": [37.3426317, 55.700072399665288] }
    },
    {
      "type": "Feature",
      "properties": { "name_ru": "Каланчёвская", "line_name": "D2", "colour": "#EF4D89" },
      "geometry": { "type": "Point", "coordinates": [37.651534265420572, 55.77619780068153] }
    },
    {
      "type": "Feature",
      "properties": { "name_ru": "Силикатная", "line_name": "D2", "colour": "#EF4D89" },
      "geometry": { "type": "Point", "coordinates": [37.5554754, 55.470434599578226] }
    },
    {
      "type": "Feature",
      "properties": { "name_ru": "Остафьево", "line_name": "D2", "colour": "#EF4D89" },
      "geometry": { "type": "Point", "coordinates": [37.555202712107608, 55.485781731070503] }
    },
    {
      "type": "Feature",
      "properties": { "name_ru": "Щербинка", "line_name": "D2", "colour": "#EF4D89" },
      "geometry": { "type": "Point", "coordinates": [37.562285998564498, 55.51036308545833] }
    },
    {
      "type": "Feature",
      "properties": { "name_ru": "Бутово", "line_name": "D2", "colour": "#EF4D89" },
      "geometry": { "type": "Point", "coordinates": [37.570652127738789, 55.541291774376738] }
    },
    {
      "type": "Feature",
      "properties": { "name_ru": "Тестовская", "line_name": "D1", "colour": "#FAA61A" },
      "geometry": { "type": "Point", "coordinates": [37.53160383422059, 55.754107622414928] }
    },
    {
      "type": "Feature",
      "properties": { "name_ru": "Фили", "line_name": "D1", "colour": "#FAA61A" },
      "geometry": { "type": "Point", "coordinates": [37.514831401485793, 55.744199257656298] }
    },
    {
      "type": "Feature",
      "properties": { "name_ru": "Царицыно", "line_name": "D2", "colour": "#EF4D89" },
      "geometry": { "type": "Point", "coordinates": [37.668400483012014, 55.617973949585277] }
    },
    {
      "type": "Feature",
      "properties": { "name_ru": "Кунцевская", "line_name": "D1", "colour": "#FAA61A" },
      "geometry": { "type": "Point", "coordinates": [37.449393428222372, 55.726865934085232] }
    },
    {
      "type": "Feature",
      "properties": { "name_ru": "Рабочий Посёлок", "line_name": "D1", "colour": "#FAA61A" },
      "geometry": { "type": "Point", "coordinates": [37.417534956504504, 55.727001819050052] }
    },
    {
      "type": "Feature",
      "properties": { "name_ru": "Сетунь", "line_name": "D1", "colour": "#FAA61A" },
      "geometry": { "type": "Point", "coordinates": [37.398132063951067, 55.72399209298144] }
    },
    {
      "type": "Feature",
      "properties": { "name_ru": "Славянский бульвар", "line_name": "D1", "colour": "#FAA61A" },
      "geometry": { "type": "Point", "coordinates": [37.472609485336882, 55.730395758842072] }
    },
    {
      "type": "Feature",
      "properties": { "name_ru": "Беговая", "line_name": "D1", "colour": "#FAA61A" },
      "geometry": { "type": "Point", "coordinates": [37.549982284341858, 55.773187020581148] }
    },
    {
      "type": "Feature",
      "properties": { "name_ru": "Курская", "line_name": "D2", "colour": "#EF4D89" },
      "geometry": { "type": "Point", "coordinates": [37.662207003993892, 55.75778503032577] }
    },
    {
      "type": "Feature",
      "properties": { "name_ru": "Красный строитель", "line_name": "D2", "colour": "#EF4D89" },
      "geometry": { "type": "Point", "coordinates": [37.6153792, 55.590438199622909] }
    },
    {
      "type": "Feature",
      "properties": { "name_ru": "Покровское", "line_name": "D2", "colour": "#EF4D89" },
      "geometry": { "type": "Point", "coordinates": [37.632017711674116, 55.602826388892034] }
    },
    {
      "type": "Feature",
      "properties": { "name_ru": "Москворечье", "line_name": "D2", "colour": "#EF4D89" },
      "geometry": { "type": "Point", "coordinates": [37.69000801949273, 55.641183160840356] }
    },
    {
      "type": "Feature",
      "properties": { "name_ru": "Кубанская", "line_name": "D2", "colour": "#EF4D89" },
      "geometry": { "type": "Point", "coordinates": [37.73458182017761, 55.685908911710428] }
    },
    {
      "type": "Feature",
      "properties": { "name_ru": "Депо", "line_name": "D2", "colour": "#EF4D89" },
      "geometry": { "type": "Point", "coordinates": [37.72833661133491, 55.674300929241909] }
    },
    {
      "type": "Feature",
      "properties": { "name_ru": "Текстильщики", "line_name": "D2", "colour": "#EF4D89" },
      "geometry": { "type": "Point", "coordinates": [37.729547772520178, 55.707472652227906] }
    },
    {
      "type": "Feature",
      "properties": { "name_ru": "Калитники", "line_name": "D2", "colour": "#EF4D89" },
      "geometry": { "type": "Point", "coordinates": [37.702265125336517, 55.734060229666397] }
    },
    {
      "type": "Feature",
      "properties": { "name_ru": "Курьяново (стр.)", "line_name": "D2", "colour": "#EF4D89" },
      "geometry": { "type": "Point", "coordinates": [37.701542452672584, 55.649832725861216] }
    },
    {
      "type": "Feature",
      "properties": { "name_ru": "Москва-Товарная", "line_name": "D2", "colour": "#EF4D89" },
      "geometry": { "type": "Point", "coordinates": [37.688183617720362, 55.745773549947735] }
    },
    {
      "type": "Feature",
      "properties": { "name_ru": "Илимская (стр.)", "line_name": "D1", "colour": "#FAA61A" },
      "geometry": { "type": "Point", "coordinates": [37.567020688268819, 55.890340276404466] }
    },
    {
      "type": "Feature",
      "properties": { "name_ru": "Котляково (проект.)", "line_name": "D2", "colour": "#EF4D89" },
      "geometry": { "type": "Point", "coordinates": [37.6400207, 55.610113999630371] }
    }
  ]
}
