{
"type": "FeatureCollection",
"name": "metro_new_stations",
"crs": { "type": "name", "properties": { "name": "urn:ogc:def:crs:OGC:1.3:CRS84" } },
"features": [
{ "type": "Feature", "properties": { "name_ru": "Физтех", "line": "Люблинская", "colour": "#99CC00", "year": "09.2022" }, "geometry": { "type": "Point", "coordinates": [ 37.546826230252954, 55.921003603243285 ] } },
{ "type": "Feature", "properties": { "name_ru": "Лианозово", "line": "Люблинская", "colour": "#99CC00", "year": "09.2022" }, "geometry": { "type": "Point", "coordinates": [ 37.544425416765939, 55.897901465746692 ] } },
{ "type": "Feature", "properties": { "name_ru": "Яхромская", "line": "Люблинская", "colour": "#99CC00", "year": "09.2022" }, "geometry": { "type": "Point", "coordinates": [ 37.545600663336458, 55.879390051083838 ] } },
{ "type": "Feature", "properties": { "name_ru": "Южный порт", "line": "Люблинская", "colour": "#99CC00", "year": "09.2023" }, "geometry": { "type": "Point", "coordinates": [ 37.705167959514895, 55.700529224960732 ] } },
{ "type": "Feature", "properties": { "name_ru": "Пыхтино", "line": "Солнцевская", "colour": "#FFD702", "year": "09.2022" }, "geometry": { "type": "Point", "coordinates": [ 37.295859347175686, 55.624843328554974 ] } },
{ "type": "Feature", "properties": { "name_ru": "Внуково", "line": "Солнцевская", "colour": "#FFD702", "year": "09.2022" }, "geometry": { "type": "Point", "coordinates": [ 37.286569998355141, 55.607811425048013 ] } },
{ "type": "Feature", "properties": { "name_ru": "Севастопольский проспект", "line": "Троицкая", "colour": "#5f5f5f", "year": "09.2023" }, "geometry": { "type": "Point", "coordinates": [ 37.609158189907724, 55.689515972226474 ] } },
{ "type": "Feature", "properties": { "name_ru": "Улица Новаторов", "line": "Троицкая", "colour": "#5f5f5f", "year": "09.2023" }, "geometry": { "type": "Point", "coordinates": [ 37.520632626459616, 55.671198305769536 ] } },
{ "type": "Feature", "properties": { "name_ru": "Улица Строителей", "line": "Троицкая", "colour": "#5f5f5f", "year": "09.2023" }, "geometry": { "type": "Point", "coordinates": [ 37.541540698826125, 55.685094817951125 ] } },
{ "type": "Feature", "properties": { "name_ru": "Академическая", "line": "Троицкая", "colour": "#5f5f5f", "year": "09.2023" }, "geometry": { "type": "Point", "coordinates": [ 37.575124047609336, 55.6872109767437 ] } },
{ "type": "Feature", "properties": { "name_ru": "Ватутинки", "line": "Троицкая", "colour": "#5f5f5f", "year": "2025" }, "geometry": { "type": "Point", "coordinates": [ 37.332739604926672, 55.491825212815272 ] } },
{ "type": "Feature", "properties": { "name_ru": "Десёновское", "line": "Троицкая", "colour": "#5f5f5f", "year": "2025" }, "geometry": { "type": "Point", "coordinates": [ 37.357134616974726, 55.511706712508797 ] } },
{ "type": "Feature", "properties": { "name_ru": "Десна", "line": "Троицкая", "colour": "#5f5f5f", "year": "2025" }, "geometry": { "type": "Point", "coordinates": [ 37.391079979968879, 55.52708090587106 ] } },
{ "type": "Feature", "properties": { "name_ru": "Ракитки", "line": "Троицкая", "colour": "#5f5f5f", "year": "2025" }, "geometry": { "type": "Point", "coordinates": [ 37.402084133431643, 55.53945730558096 ] } },
{ "type": "Feature", "properties": { "name_ru": "Сосенки", "line": "Троицкая", "colour": "#5f5f5f", "year": "2025" }, "geometry": { "type": "Point", "coordinates": [ 37.430914592941832, 55.547832831216581 ] } },
{ "type": "Feature", "properties": { "name_ru": "Славянский Мир", "line": "Троицкая", "colour": "#5f5f5f", "year": "09.2023" }, "geometry": { "type": "Point", "coordinates": [ 37.480824652921889, 55.619446437579811 ] } },
{ "type": "Feature", "properties": { "name_ru": "Мамыри", "line": "Троицкая", "colour": "#5f5f5f", "year": "09.2023" }, "geometry": { "type": "Point", "coordinates": [ 37.479361007476847, 55.598603083952 ] } },
{ "type": "Feature", "properties": { "name_ru": "Коммунарка", "line": "Троицкая", "colour": "#5f5f5f", "year": "09.2023" }, "geometry": { "type": "Point", "coordinates": [ 37.465075207963473, 55.560656420202399 ] } },
{ "type": "Feature", "properties": { "name_ru": "Бачуринская", "line": "Троицкая", "colour": "#5f5f5f", "year": "09.2023" }, "geometry": { "type": "Point", "coordinates": [ 37.467812661115651, 55.574787313115557 ] } },
{ "type": "Feature", "properties": { "name_ru": "Улица Генерала Тюленева", "line": "Троицкая", "colour": "#5f5f5f", "year": "09.2023" }, "geometry": { "type": "Point", "coordinates": [ 37.485862539696299, 55.626019831840082 ] } },
{ "type": "Feature", "properties": { "name_ru": "Университет Дружбы народов", "line": "Троицкая", "colour": "#5f5f5f", "year": "09.2023" }, "geometry": { "type": "Point", "coordinates": [ 37.506571773512178, 55.647845999606609 ] } },
{ "type": "Feature", "properties": { "name_ru": "ЗИЛ", "line": "Бирюлёвская", "colour": "#5f5f5f", "year": "2025" }, "geometry": { "type": "Point", "coordinates": [ 37.643412811653214, 55.698882259771032 ] } },
{ "type": "Feature", "properties": { "name_ru": "Технопарк", "line": "Бирюлёвская", "colour": "#5f5f5f", "year": "2025" }, "geometry": { "type": "Point", "coordinates": [ 37.668234499721187, 55.691575419038983 ] } },
{ "type": "Feature", "properties": { "name_ru": "Кленовый бульвар", "line": "Бирюлёвская", "colour": "#5f5f5f", "year": "11.2022" }, "geometry": { "type": "Point", "coordinates": [ 37.68083453579424, 55.675627017169624 ] } },
{ "type": "Feature", "properties": { "name_ru": "Курьяново", "line": "Бирюлёвская", "colour": "#5f5f5f", "year": "2025" }, "geometry": { "type": "Point", "coordinates": [ 37.703275183694394, 55.659110130399377 ] } },
{ "type": "Feature", "properties": { "name_ru": "Москворечье", "line": "Бирюлёвская", "colour": "#5f5f5f", "year": "2025" }, "geometry": { "type": "Point", "coordinates": [ 37.675601932384879, 55.645215878491342 ] } },
{ "type": "Feature", "properties": { "name_ru": "Кавказский бульвар", "line": "Бирюлёвская", "colour": "#5f5f5f", "year": "2025" }, "geometry": { "type": "Point", "coordinates": [ 37.666814666712575, 55.631690409222735 ] } },
{ "type": "Feature", "properties": { "name_ru": "6-я Радиальная улица", "line": "Бирюлёвская", "colour": "#5f5f5f", "year": "2025" }, "geometry": { "type": "Point", "coordinates": [ 37.655839814547605, 55.6087720929862 ] } },
{ "type": "Feature", "properties": { "name_ru": "Липецкая", "line": "Бирюлёвская", "colour": "#5f5f5f", "year": "2025" }, "geometry": { "type": "Point", "coordinates": [ 37.672232943541367, 55.597275931042432 ] } },
{ "type": "Feature", "properties": { "name_ru": "Загорье", "line": "Бирюлёвская", "colour": "#5f5f5f", "year": "2025" }, "geometry": { "type": "Point", "coordinates": [ 37.679439323990415, 55.584138031656067 ] } },
{ "type": "Feature", "properties": { "name_ru": "Бирюлёво", "line": "Бирюлёвская", "colour": "#5f5f5f", "year": "2025" }, "geometry": { "type": "Point", "coordinates": [ 37.658450785740044, 55.57998523290528 ] } },
{ "type": "Feature", "properties": { "name_ru": "Сокольники", "line": "Большая", "colour": "#82C0C0", "year": "08.2021" }, "geometry": { "type": "Point", "coordinates": [ 37.679337368619606, 55.790149178869868 ] } },
{ "type": "Feature", "properties": { "name_ru": "Карамышевская", "line": "Большая", "colour": "#82C0C0", "year": "11.2020" }, "geometry": { "type": "Point", "coordinates": [ 37.471515258057707, 55.76151016119735 ] } },
{ "type": "Feature", "properties": { "name_ru": "Давыдково", "line": "Большая", "colour": "#82C0C0", "year": "11.2021" }, "geometry": { "type": "Point", "coordinates": [ 37.451989148096871, 55.714623931703223 ] } },
{ "type": "Feature", "properties": { "name_ru": "Терехово", "line": "Большая", "colour": "#82C0C0", "year": "11.2021" }, "geometry": { "type": "Point", "coordinates": [ 37.46001306023404, 55.748363982331561 ] } },
{ "type": "Feature", "properties": { "name_ru": "Кунцевская", "line": "Большая", "colour": "#82C0C0", "year": "11.2021" }, "geometry": { "type": "Point", "coordinates": [ 37.445835336398332, 55.729222069573133 ] } },
{ "type": "Feature", "properties": { "name_ru": "Мнёвники", "line": "Большая", "colour": "#82C0C0", "year": "11.2020" }, "geometry": { "type": "Point", "coordinates": [ 37.485667663845561, 55.775782153292347 ] } },
{ "type": "Feature", "properties": { "name_ru": "Каховская", "line": "Большая", "colour": "#82C0C0", "year": "06.2021" }, "geometry": { "type": "Point", "coordinates": [ 37.597814874977601, 55.652771611820469 ] } },
{ "type": "Feature", "properties": { "name_ru": "Мичуринский проспект", "line": "Большая", "colour": "#82C0C0", "year": "06.2021" }, "geometry": { "type": "Point", "coordinates": [ 37.484885244742102, 55.688441434847341 ] } },
{ "type": "Feature", "properties": { "name_ru": "Проспект Вернадского", "line": "Большая", "colour": "#82C0C0", "year": "06.2021" }, "geometry": { "type": "Point", "coordinates": [ 37.503889134562584, 55.67843428138417 ] } },
{ "type": "Feature", "properties": { "name_ru": "Аминьевская", "line": "Большая", "colour": "#82C0C0", "year": "06.2021" }, "geometry": { "type": "Point", "coordinates": [ 37.464450738884779, 55.697602987258406 ] } },
{ "type": "Feature", "properties": { "name_ru": "Кленовый бульвар", "line": "Большая", "colour": "#82C0C0", "year": "2025" }, "geometry": { "type": "Point", "coordinates": [ 37.680060960091055, 55.674325283221684 ] } },
{ "type": "Feature", "properties": { "name_ru": "Улица Новаторов", "line": "Большая", "colour": "#82C0C0", "year": "06.2021" }, "geometry": { "type": "Point", "coordinates": [ 37.521217372223703, 55.67034916103831 ] } },
{ "type": "Feature", "properties": { "name_ru": "Зюзино", "line": "Большая", "colour": "#82C0C0", "year": "06.2021" }, "geometry": { "type": "Point", "coordinates": [ 37.573571427192839, 55.655757123840786 ] } },
{ "type": "Feature", "properties": { "name_ru": "Калужская", "line": "Большая", "colour": "#82C0C0", "year": "06.2021" }, "geometry": { "type": "Point", "coordinates": [ 37.53949469317363, 55.658815876002208 ] } },
{ "type": "Feature", "properties": { "name_ru": "Нагатинский Затон", "line": "Большая", "colour": "#82C0C0", "year": "11.2022" }, "geometry": { "type": "Point", "coordinates": [ 37.70483767564005, 55.684562147044616 ] } },
{ "type": "Feature", "properties": { "name_ru": "Варшавская", "line": "Большая", "colour": "#82C0C0", "year": "06.2021" }, "geometry": { "type": "Point", "coordinates": [ 37.6179272, 55.653264599647017 ] } },
{ "type": "Feature", "properties": { "name_ru": "Марьина Роща", "line": "Большая", "colour": "#82C0C0", "year": "11.2022" }, "geometry": { "type": "Point", "coordinates": [ 37.616351303675401, 55.796530686409191 ] } },
{ "type": "Feature", "properties": { "name_ru": "Печатники", "line": "Большая", "colour": "#82C0C0", "year": "11.2022" }, "geometry": { "type": "Point", "coordinates": [ 37.72694683068849, 55.694482300526445 ] } },
{ "type": "Feature", "properties": { "name_ru": "Текстильщики", "line": "Большая", "colour": "#82C0C0", "year": "11.2022" }, "geometry": { "type": "Point", "coordinates": [ 37.728426674672761, 55.707283035707725 ] } },
{ "type": "Feature", "properties": { "name_ru": "Каширская", "line": "Большая", "colour": "#82C0C0", "year": "06.2021" }, "geometry": { "type": "Point", "coordinates": [ 37.649233632281273, 55.655141074504385 ] } },
{ "type": "Feature", "properties": { "name_ru": "Рижская", "line": "Большая", "colour": "#82C0C0", "year": "11.2022" }, "geometry": { "type": "Point", "coordinates": [ 37.634256833765377, 55.793900378202245 ] } },
{ "type": "Feature", "properties": { "name_ru": "Электрозаводская", "line": "Большая", "colour": "#82C0C0", "year": "12.2020" }, "geometry": { "type": "Point", "coordinates": [ 37.702686545376807, 55.780901543296892 ] } },
{ "type": "Feature", "properties": { "name_ru": "Бульвар Генерала Карбышева", "line": "Рублёво-Архангельская", "colour": "#5f5f5f", "year": "2025" }, "geometry": { "type": "Point", "coordinates": [ 37.4723267, 55.7843686 ] } },
{ "type": "Feature", "properties": { "name_ru": "Живописная", "line": "Рублёво-Архангельская", "colour": "#5f5f5f", "year": "2025" }, "geometry": { "type": "Point", "coordinates": [ 37.4523901, 55.7891982 ] } },
{ "type": "Feature", "properties": { "name_ru": "Строгино", "line": "Рублёво-Архангельская", "colour": "#5f5f5f", "year": "2025" }, "geometry": { "type": "Point", "coordinates": [ 37.4064518, 55.8032957 ] } },
{ "type": "Feature", "properties": { "name_ru": "Гольяново", "line": "Арбатско-Покровская", "colour": "#0077BE", "year": "06.2023" }, "geometry": { "type": "Point", "coordinates": [ 37.8147338, 55.8232686 ] } },
{ "type": "Feature", "properties": { "name_ru": "Потапово", "line": "Сокольническая", "colour": "#DA2028", "year": "03.2022" }, "geometry": { "type": "Point", "coordinates": [ 37.4929379, 55.552602 ] } },
{ "type": "Feature", "properties": { "name_ru": "Пресня", "line": "Рублёво-Архангельская", "colour": "#5f5f5f", "year": "2025" }, "geometry": { "type": "Point", "coordinates": [ 37.5085416, 55.7664164 ] } },
{ "type": "Feature", "properties": { "name_ru": "Проспект Маршала Жукова", "line": "Рублёво-Архангельская", "colour": "#5f5f5f", "year": "2025" }, "geometry": { "type": "Point", "coordinates": [ 37.4880715, 55.7768962 ] } },
{ "type": "Feature", "properties": { "name_ru": "Суворовская", "line": "Большая", "colour": "#8A4F35", "year": "08.2023" }, "geometry": { "type": "Point", "coordinates": [ 37.616012289491238, 55.780583857757222 ] } },
{ "type": "Feature", "properties": { "name_ru": "Троицк", "line": "Троицкая", "colour": "#5f5f5f", "year": "2025" }, "geometry": { "type": "Point", "coordinates": [ 37.302141920225971, 55.481387934022884 ] } }
]
}
